GSAT0224 (GALILEO 28)   
1 49810U 21116B   26168.98509303 -.00000091  00000+0  00000+0 0  9992
2 49810  57.1613 341.6514 0001177 159.9709 202.1698  1.70475877 28225
GSAT0225 (GALILEO 29)   
1 59598U 24079A   26170.44860191 -.00000013  00000+0  00000+0 0  9990
2 59598  55.1213 101.0165 0001533 302.7942 230.7595  1.70473881 13350
GSAT0227 (GALILEO 30)   
1 59600U 24079C   26170.34920996 -.00000013  00000+0  00000+0 0  9993
2 59600  55.1161 101.0181 0002201  52.0058 307.9926  1.70473950 13408
GSAT0232 (GALILEO 32)   
1 61182U 24167A   26172.38887110  .00000029  00000+0  00000+0 0  9991
2 61182  55.1837 221.1983 0006220 228.6673 158.7060  1.70474305 10952
GSAT0226 (GALILEO 31)   
1 61183U 24167B   26172.32163679  .00000029  00000+0  00000+0 0  9993
2 61183  55.1825 221.2072 0003001 231.0582 206.3880  1.70474325 10920
GSAT0233 (GALILEO 33)   
1 67160U 25302A   26170.57978300 -.00000013  00000+0  00000+0 0  9990
2 67160  54.3370 102.0625 0000767 220.2514 324.6772  1.70473973  3168
GSAT0234 (GALILEO 34)   
1 67162U 25302C   26169.10704436 -.00000012  00000+0  00000+0 0  9995
2 67162  54.3376 102.1035 0002962 311.0872 230.0912  1.70473903  3199
